NORAD_CAT_ID,OBJECT_NAME,OBJECT_TYPE,EPOCH,MEAN_MOTION,ECCENTRICITY,INCLINATION,RA_OF_ASC_NODE,ARG_OF_PERICENTER,MEAN_ANOMALY,BSTAR,MEAN_MOTION_DOT,MEAN_MOTION_DDOT,TLE_LINE0,TLE_LINE1,TLE_LINE2,SEMIMAJOR_AXIS,PERIOD,APOGEE,PERIGEE,DECAYED
56479.0,STARLINK-6044,PAYLOAD,2024-06-21 16:26:20,14.98328481,0.0002974,70.0001,262.6817,265.6297,94.4522,2.0726e-05,1.54e-06,0.0,0 STARLINK-6044,1 56479U 23064AH  24173.68496390  .00000154  00000-0  20726-4 0  9999,2 56479  70.0001 262.6817 0002974 265.6297  94.4522 14.98328481 61979,6950.198,96.107,574.13,569.996,0.0
56479.0,STARLINK-6044,PAYLOAD,2024-06-22 05:15:25,14.98333386,0.000293,70.0002,261.3349,266.6523,93.43,-1.2375e-05,-2.41e-06,0.0,0 STARLINK-6044,1 56479U 23064AH  24174.21904153 -.00000241  00000-0 -12375-4 0  9990,2 56479  70.0002 261.3349 0002930 266.6523  93.4300 14.98333386 62414,6950.182,96.107,574.084,570.011,0.0
56479.0,STARLINK-6044,PAYLOAD,2024-06-22 13:16:05,14.98330966,0.0002975,70.0001,260.4933,266.7201,93.3618,-4.0234e-05,-5.73e-06,0.0,0 STARLINK-6044,1 56479U 23064AH  24174.55284327 -.00000573  00000-0 -40234-4 0  9994,2 56479  70.0001 260.4933 0002975 266.7201  93.3618 14.98330966 62103,6950.19,96.107,574.123,569.987,0.0
56479.0,STARLINK-6044,PAYLOAD,2024-06-22 14:52:13,14.98331091,0.0002974,70.0001,260.325,266.8089,93.273,-3.8336e-05,-5.5e-06,0.0,0 STARLINK-6044,1 56479U 23064AH  24174.61960308 -.00000550  00000-0 -38336-4 0  9996,2 56479  70.0001 260.3250 0002974 266.8089  93.2730 14.98331091 62113,6950.19,96.107,574.122,569.988,0.0
56479.0,STARLINK-6044,PAYLOAD,2024-06-23 05:17:26,14.98327836,0.0003104,69.9998,258.8095,266.2482,93.8322,5.9591e-05,6.18e-06,0.0,0 STARLINK-6044,1 56479U 23064AH  24175.22044235  .00000618  00000-0  59591-4 0  9995,2 56479  69.9998 258.8095 0003104 266.2482  93.8322 14.98327836 62565,6950.2,96.107,574.222,569.907,0.0
56479.0,STARLINK-6044,PAYLOAD,2024-06-23 13:18:06,14.98328298,0.0003109,69.9997,257.9679,266.2408,93.8395,5.9721e-05,6.2e-06,0.0,0 STARLINK-6044,1 56479U 23064AH  24175.55424249  .00000620  00000-0  59721-4 0  9996,2 56479  69.9997 257.9679 0003109 266.2408  93.8395 14.98328298 62254,6950.198,96.107,574.224,569.902,0.0
56479.0,STARLINK-6044,PAYLOAD,2024-06-24 13:20:07,14.98332826,0.0003215,69.9995,255.4434,267.9229,92.1562,7.3911e-05,7.89e-06,0.0,0 STARLINK-6044,1 56479U 23064AH  24176.55563814  .00000789  00000-0  73911-4 0  9992,2 56479  69.9995 255.4434 0003215 267.9229  92.1562 14.98332826 62767,6950.184,96.107,574.284,569.815,0.0
56479.0,STARLINK-6044,PAYLOAD,2024-06-24 14:56:15,14.98333877,0.0003185,69.9997,255.2754,267.872,92.2075,8.6958e-05,9.45e-06,0.0,0 STARLINK-6044,1 56479U 23064AH  24176.62239707  .00000945  00000-0  86958-4 0  9990,2 56479  69.9997 255.2754 0003185 267.8720  92.2075 14.98333877 62412,6950.181,96.107,574.26,569.832,0.0
56479.0,STARLINK-6044,PAYLOAD,2024-06-25 13:22:06,14.98391984,0.0003533,69.9999,252.9202,260.893,99.1829,-0.0010903,-0.00013099,0.0,0 STARLINK-6044,1 56479U 23064AH  24177.55702520 -.00013099  00000-0 -10903-2 0  9992,2 56479  69.9999 252.9202 0003533 260.8930  99.1829 14.98391984 62550,6950.001,96.103,574.322,569.411,0.0
56479.0,STARLINK-6044,PAYLOAD,2024-06-25 14:58:16,14.98329686,0.0003169,69.9998,252.7513,267.3871,92.6925,1.2045e-06,-7.9e-07,0.0,0 STARLINK-6044,1 56479U 23064AH  24177.62380097 -.00000079  00000-0  12045-5 0  9996,2 56479  69.9998 252.7513 0003169 267.3871  92.6925 14.98329686 62929,6950.194,96.107,574.261,569.856,0.0
56479.0,STARLINK-6044,PAYLOAD,2024-06-26 05:23:27,14.98454216,0.000374,69.9999,251.2369,259.0044,101.0695,-0.001975,-0.00023656,0.0,0 STARLINK-6044,1 56479U 23064AH  24178.22462611 -.00023656  00000-0 -19750-2 0  9990,2 56479  69.9999 251.2369 0003740 259.0044 101.0695 14.98454216 63016,6949.809,96.099,574.273,569.075,0.0
56479.0,STARLINK-6044,PAYLOAD,2024-06-26 11:48:00,14.98334773,0.0003161,69.9999,250.5647,252.5473,107.534,4.6772e-05,4.65e-06,0.0,0 STARLINK-6044,1 56479U 23064AH  24178.49167418  .00000465  00000-0  46772-4 0  9993,2 56479  69.9999 250.5647 0003161 252.5473 107.5340 14.98334773 63055,6950.178,96.107,574.24,569.846,0.0
56479.0,STARLINK-6044,PAYLOAD,2024-06-27 05:25:29,14.98329983,0.0003276,69.9992,248.7094,273.8232,86.2552,6.1153e-05,6.37e-06,0.0,0 STARLINK-6044,1 56479U 23064AH  24179.22603741  .00000637  00000-0  61153-4 0  9990,2 56479  69.9992 248.7094 0003276 273.8232  86.2552 14.98329983 63166,6950.193,96.107,574.335,569.781,0.0
56479.0,STARLINK-6044,PAYLOAD,2024-06-27 13:26:10,14.98328838,0.0003322,69.9992,247.8679,273.3789,86.699,4.0078e-05,3.85e-06,0.0,0 STARLINK-6044,1 56479U 23064AH  24179.55983884  .00000385  00000-0  40078-4 0  9998,2 56479  69.9992 247.8679 0003322 273.3789  86.6990 14.98328838 62852,6950.196,96.107,574.37,569.753,0.0
56479.0,STARLINK-6044,PAYLOAD,2024-06-28 05:27:30,14.98331095,0.0003327,69.9989,246.1844,271.1408,88.9369,1.5948e-05,9.7e-07,0.0,0 STARLINK-6044,1 56479U 23064AH  24180.22743813  .00000097  00000-0  15948-4 0  9998,2 56479  69.9989 246.1844 0003327 271.1408  88.9369 14.98331095 63319,6950.19,96.107,574.367,569.742,0.0
56479.0,STARLINK-6044,PAYLOAD,2024-06-28 13:28:10,14.98335651,0.0003257,69.9991,245.3432,270.2943,89.7842,5.6949e-05,5.87e-06,0.0,0 STARLINK-6044,1 56479U 23064AH  24180.56123380  .00000587  00000-0  56949-4 0  9996,2 56479  69.9991 245.3432 0003257 270.2943  89.7842 14.98335651 63005,6950.175,96.107,574.304,569.777,0.0
56479.0,STARLINK-6044,PAYLOAD,2024-06-29 11:54:03,14.98327473,0.0003156,69.9992,242.9866,268.6704,91.4094,3.2863e-05,2.99e-06,0.0,0 STARLINK-6044,1 56479U 23064AH  24181.49587962  .00000299  00000-0  32863-4 0  9998,2 56479  69.9992 242.9866 0003156 268.6704  91.4094 14.98327473 63501,6950.201,96.107,574.259,569.872,0.0
56479.0,STARLINK-6044,PAYLOAD,2024-06-29 13:30:12,14.98327626,0.0003165,69.9992,242.8183,268.8927,91.187,3.2547e-05,2.95e-06,0.0,0 STARLINK-6044,1 56479U 23064AH  24181.56263961  .00000295  00000-0  32547-4 0  9991,2 56479  69.9992 242.8183 0003165 268.8927  91.1870 14.98327626 63151,6950.2,96.107,574.265,569.865,0.0
56479.0,STARLINK-6044,PAYLOAD,2024-06-30 13:32:13,14.98327561,0.0003255,69.9986,240.2926,268.0324,92.0462,-2.3547e-05,-3.74e-06,0.0,0 STARLINK-6044,1 56479U 23064AH  24182.56404312 -.00000374  00000-0 -23547-4 0  9999,2 56479  69.9986 240.2926 0003255 268.0324  92.0462 14.98327561 63306,6950.2,96.107,574.328,569.803,0.0
56479.0,STARLINK-6044,PAYLOAD,2024-06-30 21:32:53,14.98329065,0.0003319,69.9984,239.4508,267.9791,92.0988,3.8882e-05,3.71e-06,0.0,0 STARLINK-6044,1 56479U 23064AH  24182.89784082  .00000371  00000-0  38882-4 0  9993,2 56479  69.9984 239.4508 0003319 267.9791  92.0988 14.98329065 63356,6950.196,96.107,574.368,569.754,0.0
56479.0,STARLINK-6044,PAYLOAD,2024-07-01 05:33:33,14.98332757,0.0003372,69.998,238.6088,267.8219,92.2554,8.5171e-05,9.23e-06,0.0,0 STARLINK-6044,1 56479U 23064AH  24183.23163710  .00000923  00000-0  85171-4 0  9997,2 56479  69.9980 238.6088 0003372 267.8219  92.2554 14.98332757 63767,6950.184,96.107,574.393,569.706,0.0
56479.0,STARLINK-6044,PAYLOAD,2024-07-01 13:34:13,14.98336304,0.0003379,69.9981,237.7677,268.5474,91.5298,0.00011892,1.326e-05,0.0,0 STARLINK-6044,1 56479U 23064AH  24183.56543343  .00001326  00000-0  11892-3 0  9993,2 56479  69.9981 237.7677 0003379 268.5474  91.5298 14.98336304 63455,6950.173,96.107,574.387,569.69,0.0
56479.0,STARLINK-6044,PAYLOAD,2024-07-01 21:34:54,14.98328594,0.0003355,69.9981,236.9258,268.5913,91.4862,8.2978e-05,8.97e-06,0.0,0 STARLINK-6044,1 56479U 23064AH  24183.89923880  .00000897  00000-0  82978-4 0  9993,2 56479  69.9981 236.9258 0003355 268.5913  91.4862 14.98328594 63507,6950.197,96.107,574.394,569.73,0.0
56479.0,STARLINK-6044,PAYLOAD,2024-07-02 05:35:34,14.98326271,0.000335,69.9981,236.0843,268.4294,91.6481,7.8165e-05,8.4e-06,0.0,0 STARLINK-6044,1 56479U 23064AH  24184.23304105  .00000840  00000-0  78165-4 0  9996,2 56479  69.9981 236.0843 0003350 268.4294  91.6481 14.98326271 63918,6950.204,96.107,574.398,569.741,0.0
56479.0,STARLINK-6044,PAYLOAD,2024-07-02 13:36:14,14.98331935,0.0003365,69.998,235.2428,268.6769,91.4005,8.3342e-05,9.02e-06,0.0,0 STARLINK-6044,1 56479U 23064AH  24184.56683738  .00000902  00000-0  83342-4 0  9996,2 56479  69.9980 235.2428 0003365 268.6769  91.4005 14.98331935 63601,6950.187,96.107,574.391,569.713,0.0
56479.0,STARLINK-6044,PAYLOAD,2024-07-03 04:01:27,14.98334488,0.0003314,69.9981,233.7279,269.2338,90.8441,8.5841e-06,9e-08,0.0,0 STARLINK-6044,1 56479U 23064AH  24185.16767660  .00000009  00000-0  85841-5 0  9995,2 56479  69.9981 233.7279 0003314 269.2338  90.8441 14.98334488 64055,6950.179,96.107,574.347,569.741,0.0
56479.0,STARLINK-6044,PAYLOAD,2024-07-03 20:02:47,14.98352198,0.0003361,69.9983,232.0448,271.4527,88.6246,-0.00033807,-4.127e-05,0.0,0 STARLINK-6044,1 56479U 23064AH  24185.83526957 -.00004127  00000-0 -33807-3 0  9991,2 56479  69.9983 232.0448 0003361 271.4527  88.6246 14.98352198 64151,6950.124,96.106,574.325,569.653,0.0
56479.0,STARLINK-6044,PAYLOAD,2024-07-04 04:03:28,14.9832459,0.0003517,69.9983,231.2033,268.478,91.5976,0.00010499,1.16e-05,0.0,0 STARLINK-6044,1 56479U 23064AH  24186.16907656  .00001160  00000-0  10499-3 0  9991,2 56479  69.9983 231.2033 0003517 268.4780  91.5976 14.98324590 64206,6950.21,96.107,574.519,569.63,0.0
56479.0,STARLINK-6044,PAYLOAD,2024-07-04 12:04:08,14.98329453,0.0003253,69.9983,230.3618,267.6595,92.4192,6.5443e-07,-8.5e-07,0.0,0 STARLINK-6044,1 56479U 23064AH  24186.50287691 -.00000085  00000-0  65443-6 0  9997,2 56479  69.9983 230.3618 0003253 267.6595  92.4192 14.98329453 63894,6950.195,96.107,574.32,569.799,0.0
56479.0,STARLINK-6044,PAYLOAD,2024-07-04 20:04:48,14.98332007,0.0003258,69.9983,229.5202,267.6693,92.4093,1.0932e-05,3.7e-07,0.0,0 STARLINK-6044,1 56479U 23064AH  24186.83667485  .00000037  00000-0  10932-4 0  9993,2 56479  69.9983 229.5202 0003258 267.6693  92.4093 14.98332007 63942,6950.187,96.107,574.316,569.787,0.0
